[
    {
        "Altitude(m)": 617719.7178158824,
        "Argument of Periapsis(deg)": 0.0,
        "Eccentricity": 0.0,
        "Inclination(deg)": 60.0,
        "Latitude(deg)": -41.10249627972467,
        "Longitude(deg)": 100.09462639215398,
        "Mean Anomaly(deg)": -130.90909999999997,
        "RAAN(deg)": 350.0,
        "Satellite Name": "Test1 1554",
        "Satellite Number": 1554,
        "Semi-Major Axis(m)": 6980739.136638005,
        "Time(s)": 0
    },
    {
        "Altitude(m)": 617911.2536885283,
        "Argument of Periapsis(deg)": 0.00010418945913296404,
        "Eccentricity": 0.0,
        "Inclination(deg)": 60.0,
        "Latitude(deg)": -41.5656884847454,
        "Longitude(deg)": 100.59903148731695,
        "Mean Anomaly(deg)": -130.2889938545381,
        "RAAN(deg)": 349.99957995086027,
        "Satellite Name": "Test1 1554",
        "Satellite Number": 1554,
        "Semi-Major Axis(m)": 6980739.136638005,
        "Time(s)": 10
    }
]